NORAD_CAT_ID,OBJECT_NAME,OBJECT_TYPE,EPOCH,MEAN_MOTION,ECCENTRICITY,INCLINATION,RA_OF_ASC_NODE,ARG_OF_PERICENTER,MEAN_ANOMALY,BSTAR,MEAN_MOTION_DOT,MEAN_MOTION_DDOT,TLE_LINE0,TLE_LINE1,TLE_LINE2,SEMIMAJOR_AXIS,PERIOD,APOGEE,PERIGEE,DECAYED
53409.0,STARLINK-4490,PAYLOAD,2023-12-24 15:09:19,15.08837663,0.0001388,53.2171,122.8507,110.2302,249.8839,0.00011089,1.477e-05,0.0,0 STARLINK-4490,1 53409U 22097X   23358.63147633  .00001477  00000-0  11089-3 0  9996,2 53409  53.2171 122.8507 0001388 110.2302 249.8839 15.08837663 77101,6917.888,95.438,540.713,538.792,0.0
53409.0,STARLINK-4490,PAYLOAD,2023-12-25 11:49:18,15.08863403,0.0001618,53.2173,118.9903,54.4575,305.6568,0.00024459,3.609e-05,0.0,0 STARLINK-4490,1 53409U 22097X   23359.49258039  .00003609  00000-0  24459-3 0  9998,2 53409  53.2173 118.9903 0001618  54.4575 305.6568 15.08863403 76746,6917.809,95.436,540.793,538.555,0.0
53409.0,STARLINK-4490,PAYLOAD,2023-12-25 13:24:41,15.08871885,0.0001219,53.2162,118.6859,77.8102,282.3026,0.00030577,4.586e-05,0.0,0 STARLINK-4490,1 53409U 22097X   23359.55881445  .00004586  00000-0  30577-3 0  9991,2 53409  53.2162 118.6859 0001219  77.8102 282.3026 15.08871885 77242,6917.783,95.436,540.491,538.805,0.0
53409.0,STARLINK-4490,PAYLOAD,2023-12-26 11:40:05,15.088506,0.0001118,53.2165,114.522,95.2325,264.8794,-1.6006e-06,-3.13e-06,0.0,0 STARLINK-4490,1 53409U 22097X   23360.48617776 -.00000313  00000-0 -16006-5 0  9998,2 53409  53.2165 114.5220 0001118  95.2325 264.8794 15.08850600 76890,6917.848,95.437,540.486,538.94,0.0
53409.0,STARLINK-4490,PAYLOAD,2023-12-26 13:15:28,15.08851564,0.0001134,53.2162,114.2236,106.3785,253.7332,1.9996e-05,3.1e-07,0.0,0 STARLINK-4490,1 53409U 22097X   23360.55241654  .00000031  00000-0  19996-4 0  9999,2 53409  53.2162 114.2236 0001134 106.3785 253.7332 15.08851564 77394,6917.845,95.437,540.495,538.926,0.0
53409.0,STARLINK-4490,PAYLOAD,2023-12-27 11:30:53,15.08838229,0.0001213,53.2163,110.0616,102.5212,257.5916,8.4835e-05,1.062e-05,0.0,0 STARLINK-4490,1 53409U 22097X   23361.47978091  .00001062  00000-0  84835-4 0  9992,2 53409  53.2163 110.0616 0001213 102.5212 257.5916 15.08838229 77047,6917.886,95.438,540.59,538.912,0.0
53409.0,STARLINK-4490,PAYLOAD,2023-12-27 13:06:15,15.08845998,0.0001175,53.216,109.7646,96.8024,263.3102,-1.4459e-06,-3.11e-06,0.0,0 STARLINK-4490,1 53409U 22097X   23361.54601807 -.00000311  00000-0 -14459-5 0  9992,2 53409  53.2160 109.7646 0001175  96.8024 263.3102 15.08845998 77543,6917.862,95.437,540.54,538.914,0.0
53409.0,STARLINK-4490,PAYLOAD,2023-12-27 16:17:02,15.08851449,0.0001243,53.2162,109.1702,90.4414,269.6721,5.2772e-05,5.52e-06,0.0,0 STARLINK-4490,1 53409U 22097X   23361.67849582  .00000552  00000-0  52772-4 0  9994,2 53409  53.2162 109.1702 0001243  90.4414 269.6721 15.08851449 77073,6917.845,95.437,540.57,538.851,0.0
53409.0,STARLINK-4490,PAYLOAD,2023-12-28 11:21:40,15.08838951,0.0001297,53.2158,105.6017,105.648,254.4655,9.7743e-05,1.268e-05,0.0,0 STARLINK-4490,1 53409U 22097X   23362.47338219  .00001268  00000-0  97743-4 0  9995,2 53409  53.2158 105.6017 0001297 105.6480 254.4655 15.08838951 77193,6917.884,95.438,540.646,538.851,0.0
53409.0,STARLINK-4490,PAYLOAD,2023-12-28 14:32:26,15.08843864,0.0001284,53.2166,105.0071,82.7226,277.3912,0.00017702,2.531e-05,0.0,0 STARLINK-4490,1 53409U 22097X   23362.60586140  .00002531  00000-0  17702-3 0  9998,2 53409  53.2166 105.0071 0001284  82.7226 277.3912 15.08843864 77701,6917.869,95.437,540.622,538.845,0.0
53409.0,STARLINK-4490,PAYLOAD,2023-12-29 14:23:13,15.08844082,0.000135,53.2174,100.5459,73.852,286.2621,6.4351e-05,7.36e-06,0.0,0 STARLINK-4490,1 53409U 22097X   23363.59946205  .00000736  00000-0  64351-4 0  9997,2 53409  53.2174 100.5459 0001350  73.8520 286.2621 15.08844082 77857,6917.868,95.437,540.667,538.799,0.0
53409.0,STARLINK-4490,PAYLOAD,2023-12-30 12:38:37,15.08846614,0.0001332,53.2158,96.3866,65.2982,294.8148,5.2047e-05,5.41e-06,0.0,0 STARLINK-4490,1 53409U 22097X   23364.52682288  .00000541  00000-0  52047-4 0  9992,2 53409  53.2158  96.3866 0001332  65.2982 294.8148 15.08846614 77997,6917.86,95.437,540.647,538.804,0.0
53409.0,STARLINK-4490,PAYLOAD,2023-12-31 10:54:01,15.08836103,0.0001223,53.2168,92.2234,76.2795,283.8333,8.0611e-05,9.95e-06,0.0,0 STARLINK-4490,1 53409U 22097X   23365.45418938  .00000995  00000-0  80611-4 0  9995,2 53409  53.2168  92.2234 0001223  76.2795 283.8333 15.08836103 77643,6917.892,95.438,540.603,538.911,0.0
53409.0,STARLINK-4490,PAYLOAD,2023-12-31 12:29:24,15.08839492,0.0001345,53.2168,91.9258,72.7745,287.3394,6.0796e-05,6.8e-06,0.0,0 STARLINK-4490,1 53409U 22097X   23365.52042794  .00000680  00000-0  60796-4 0  9999,2 53409  53.2168  91.9258 0001345  72.7745 287.3394 15.08839492 78142,6917.882,95.438,540.677,538.816,0.0
53409.0,STARLINK-4490,PAYLOAD,2024-01-01 12:20:11,15.08845279,0.0001318,53.2169,87.4645,86.8659,273.2484,7.5024e-05,9.06e-06,0.0,0 STARLINK-4490,1 53409U 22097X   24001.51402266  .00000906  00000-0  75024-4 0  9991,2 53409  53.2169  87.4645 0001318  86.8659 273.2484 15.08845279 77809,6917.864,95.437,540.641,538.817,0.0
53409.0,STARLINK-4490,PAYLOAD,2024-01-02 12:10:58,15.08843317,0.0001513,53.2187,83.0058,104.5319,255.5841,0.00011792,1.589e-05,0.0,0 STARLINK-4490,1 53409U 22097X   24002.50762209  .00001589  00000-0  11792-3 0  9996,2 53409  53.2187  83.0058 0001513 104.5319 255.5841 15.08843317 78449,6917.87,95.437,540.782,538.689,0.0
53409.0,STARLINK-4490,PAYLOAD,2024-01-03 04:04:50,15.08851542,0.000168,53.2194,80.0381,106.4705,253.6471,-0.00013941,-2.507e-05,0.0,0 STARLINK-4490,1 53409U 22097X   24003.17002577 -.00002507  00000-0 -13941-3 0  9996,2 53409  53.2194  80.0381 0001680 106.4705 253.6471 15.08851542 78052,6917.845,95.437,540.872,538.548,0.0
53409.0,STARLINK-4490,PAYLOAD,2024-01-03 10:26:25,15.08800813,0.0001544,53.2188,78.844,113.6626,246.4528,-0.00029395,-4.958e-05,0.0,0 STARLINK-4490,1 53409U 22097X   24003.43502106 -.00004958  00000-0 -29395-3 0  9990,2 53409  53.2188  78.8440 0001544 113.6626 246.4528 15.08800813 78099,6918.0,95.44,540.933,538.797,0.0
53409.0,STARLINK-4490,PAYLOAD,2024-01-04 03:55:40,15.08817581,9.54e-05,53.2178,75.5677,80.1982,279.9118,-0.00014644,-2.616e-05,0.0,0 STARLINK-4490,1 53409U 22097X   24004.16365744 -.00002616  00000-0 -14644-3 0  9996,2 53409  53.2178  75.5677 0000954  80.1982 279.9118 15.08817581 78200,6917.949,95.439,540.474,539.154,0.0
53409.0,STARLINK-4490,PAYLOAD,2024-01-04 11:52:35,15.08828067,0.0001529,53.2191,74.0881,78.5384,281.5779,-4.221e-05,-9.59e-06,0.0,0 STARLINK-4490,1 53409U 22097X   24004.49485121 -.00000959  00000-0 -42210-4 0  9993,2 53409  53.2191  74.0881 0001529  78.5384 281.5779 15.08828067 78250,6917.917,95.438,540.84,538.724,0.0
53409.0,STARLINK-4490,PAYLOAD,2024-01-04 13:27:57,15.08833502,0.0001654,53.2193,73.7881,112.3395,247.7773,-7.3793e-06,-4.05e-06,0.0,0 STARLINK-4490,1 53409U 22097X   24004.56108517 -.00000405  00000-0 -73793-5 0  9999,2 53409  53.2193  73.7881 0001654 112.3395 247.7773 15.08833502 78759,6917.9,95.438,540.909,538.621,0.0
53409.0,STARLINK-4490,PAYLOAD,2024-01-05 11:43:20,15.08850958,8.88e-05,53.2184,69.6241,63.8749,296.2334,0.00031786,4.776e-05,0.0,0 STARLINK-4490,1 53409U 22097X   24005.48843198  .00004776  00000-0  31786-3 0  9999,2 53409  53.2184  69.6241 0000888  63.8749 296.2334 15.08850958 78402,6917.847,95.437,540.326,539.098,0.0
53409.0,STARLINK-4490,PAYLOAD,2024-01-05 13:18:43,15.0885608,0.0001061,53.2179,69.3267,75.1207,284.9902,0.00048055,7.372e-05,0.0,0 STARLINK-4490,1 53409U 22097X   24005.55467588  .00007372  00000-0  48055-3 0  9994,2 53409  53.2179  69.3267 0001061  75.1207 284.9902 15.08856080 78902,6917.831,95.437,540.43,538.962,0.0
53409.0,STARLINK-4490,PAYLOAD,2024-01-06 03:37:12,15.08852285,0.0001282,53.2172,66.6486,103.2066,256.9069,0.00013354,1.839e-05,0.0,0 STARLINK-4490,1 53409U 22097X   24006.15083566  .00001839  00000-0  13354-3 0  9997,2 53409  53.2172  66.6486 0001282 103.2066 256.9069 15.08852285 78501,6917.843,95.437,540.595,538.821,0.0
53409.0,STARLINK-4490,PAYLOAD,2024-01-06 11:34:07,15.08857677,0.0001385,53.2175,65.1617,77.8577,282.257,0.00023936,3.525e-05,0.0,0 STARLINK-4490,1 53409U 22097X   24006.48203361  .00003525  00000-0  23936-3 0  9991,2 53409  53.2175  65.1617 0001385  77.8577 282.2570 15.08857677 79040,6917.826,95.436,540.649,538.733,0.0
53409.0,STARLINK-4490,PAYLOAD,2024-01-07 09:49:31,15.08845877,0.0001805,53.218,61.0017,63.72,296.3977,3.0337e-05,1.95e-06,0.0,0 STARLINK-4490,1 53409U 22097X   24007.40939462  .00000195  00000-0  30337-4 0  9996,2 53409  53.2180  61.0017 0001805  63.7200 296.3977 15.08845877 78695,6917.862,95.437,540.976,538.479,0.0
53409.0,STARLINK-4490,PAYLOAD,2024-01-08 09:40:18,15.088448,0.0001613,53.2178,56.5422,70.782,289.3347,0.00011584,1.556e-05,0.0,0 STARLINK-4490,1 53409U 22097X   24008.40299392  .00001556  00000-0  11584-3 0  9992,2 53409  53.2178  56.5422 0001613  70.7820 289.3347 15.08844800 79334,6917.866,95.437,540.847,538.615,0.0
53409.0,STARLINK-4490,PAYLOAD,2024-01-09 09:31:05,15.08843029,0.0001766,53.2182,52.0816,101.0801,259.0389,0.00011795,1.59e-05,0.0,0 STARLINK-4490,1 53409U 22097X   24009.39659324  .00001590  00000-0  11795-3 0  9998,2 53409  53.2182  52.0816 0001766 101.0801 259.0389 15.08843029 78996,6917.871,95.437,540.958,538.514,0.0
53409.0,STARLINK-4490,PAYLOAD,2024-01-10 09:21:52,15.0884231,0.000189,53.2184,47.6197,106.7974,253.3226,0.00010896,1.446e-05,0.0,0 STARLINK-4490,1 53409U 22097X   24010.39019321  .00001446  00000-0  10896-3 0  9998,2 53409  53.2184  47.6197 0001890 106.7974 253.3226 15.08842310 79632,6917.873,95.437,541.046,538.431,0.0
53409.0,STARLINK-4490,PAYLOAD,2024-01-11 07:37:15,15.08856162,0.000197,53.2185,43.4596,113.0435,247.0765,0.00028034,4.178e-05,0.0,0 STARLINK-4490,1 53409U 22097X   24011.31754220  .00004178  00000-0  28034-3 0  9993,2 53409  53.2185  43.4596 0001970 113.0435 247.0765 15.08856162 79281,6917.831,95.437,541.059,538.333,0.0
